0 COSMOS 831
1 08895U 76054G   13282.44924895 -.00000030  00000-0 -10360-3 0  8035
2 08895 074.0014 183.5185 0020358 163.0620 310.6178 12.43685872694422
0 COSMOS 831
1 08895U 76054G   13286.86307338  .00000024  00000-0  27999-3 0  8051
2 08895 074.0008 177.7125 0020304 156.3354 272.6816 12.43685499694975
0 COSMOS 831
1 08895U 76054G   13289.13730035  .00000020  00000-0  25439-3 0  8062
2 08895 074.0002 174.7210 0020274 152.8759 015.0937 12.43685592695256
0 COSMOS 831
1 08895U 76054G   13291.44459459 -.00000006  00000-0  71431-4 0  8077
2 08895 073.9997 171.6859 0020245 149.4039 265.5210 12.43685904695548
0 COSMOS 831
1 08895U 76054G   13293.45755520 -.00000020  00000-0 -33745-4 0  8082
2 08895 073.9995 169.0377 0020221 146.3306 278.1771 12.43686142695793
0 COSMOS 831
1 08895U 76054G   13295.79118971 -.00000030  00000-0 -10314-3 0  8092
2 08895 073.9993 165.9677 0020205 142.7751 286.5854 12.43686182696087
